NORAD_CAT_ID,OBJECT_NAME,OBJECT_TYPE,EPOCH,MEAN_MOTION,ECCENTRICITY,INCLINATION,RA_OF_ASC_NODE,ARG_OF_PERICENTER,MEAN_ANOMALY,BSTAR,MEAN_MOTION_DOT,MEAN_MOTION_DDOT,TLE_LINE0,TLE_LINE1,TLE_LINE2,SEMIMAJOR_AXIS,PERIOD,APOGEE,PERIGEE,DECAYED
52267.0,STARLINK-3748,PAYLOAD,2023-10-06 09:34:03,15.08837609,0.0001372,53.2153,123.3472,95.5717,264.5431,7.8477e-05,9.61e-06,0.0,0 STARLINK-3748,1 52267U 22041G   23279.39865228  .00000961  00000-0  78477-4 0  9990,2 52267  53.2153 123.3472 0001372  95.5717 264.5431 15.08837609 80710,6917.888,95.438,540.702,538.804,0.0
52267.0,STARLINK-3748,PAYLOAD,2023-10-06 19:06:22,15.08836859,0.000133,53.2153,121.5631,94.6149,265.4995,3.3618e-05,2.47e-06,0.0,0 STARLINK-3748,1 52267U 22041G   23279.79609385  .00000247  00000-0  33618-4 0  9999,2 52267  53.2153 121.5631 0001330  94.6149 265.4995 15.08836859 81992,6917.89,95.438,540.675,538.835,0.0
52267.0,STARLINK-3748,PAYLOAD,2023-10-06 20:41:45,15.08838333,0.0001297,53.2152,121.2664,89.2852,270.8289,7.2576e-05,8.67e-06,0.0,0 STARLINK-3748,1 52267U 22041G   23279.86233371  .00000867  00000-0  72576-4 0  9999,2 52267  53.2152 121.2664 0001297  89.2852 270.8289 15.08838333 80788,6917.885,95.438,540.648,538.853,0.0
52267.0,STARLINK-3748,PAYLOAD,2023-10-07 14:11:00,15.08841365,0.0001328,53.2152,117.9953,91.0664,269.0481,0.00021618,3.154e-05,0.0,0 STARLINK-3748,1 52267U 22041G   23280.59097463  .00003154  00000-0  21618-3 0  9993,2 52267  53.2152 117.9953 0001328  91.0664 269.0481 15.08841365 80893,6917.876,95.437,540.66,538.823,0.0
52267.0,STARLINK-3748,PAYLOAD,2023-10-07 20:32:32,15.0884999,0.0001316,53.2152,116.806,92.0691,268.0452,0.00035031,5.293e-05,0.0,0 STARLINK-3748,1 52267U 22041G   23280.85593107  .00005293  00000-0  35031-3 0  9998,2 52267  53.2152 116.8060 0001316  92.0691 268.0452 15.08849990 80932,6917.85,95.437,540.625,538.804,0.0
52267.0,STARLINK-3748,PAYLOAD,2023-10-08 06:04:51,15.08845983,0.0001251,53.2154,115.0223,90.0897,270.0238,0.00021591,3.151e-05,0.0,0 STARLINK-3748,1 52267U 22041G   23281.25337173  .00003151  00000-0  21591-3 0  9999,2 52267  53.2154 115.0223 0001251  90.0897 270.0238 15.08845983 82216,6917.862,95.437,540.593,538.862,0.0
52267.0,STARLINK-3748,PAYLOAD,2023-10-08 12:26:23,15.0884476,0.0001253,53.2152,113.8327,86.712,273.4016,0.00018901,2.722e-05,0.0,0 STARLINK-3748,1 52267U 22041G   23281.51833197  .00002722  00000-0  18901-3 0  9999,2 52267  53.2152 113.8327 0001253  86.7120 273.4016 15.08844760 81030,6917.866,95.437,540.598,538.864,0.0
52267.0,STARLINK-3748,PAYLOAD,2023-10-08 20:23:19,15.08845082,0.0001331,53.2152,112.3461,83.562,276.5523,0.00014151,1.965e-05,0.0,0 STARLINK-3748,1 52267U 22041G   23281.84953166  .00001965  00000-0  14151-3 0  9995,2 52267  53.2152 112.3461 0001331  83.5620 276.5523 15.08845082 81080,6917.865,95.437,540.651,538.809,0.0
52267.0,STARLINK-3748,PAYLOAD,2023-10-09 05:55:38,15.08843412,0.0001493,53.2164,110.5618,86.873,273.2433,0.00010143,1.327e-05,0.0,0 STARLINK-3748,1 52267U 22041G   23282.24697302  .00001327  00000-0  10143-3 0  9996,2 52267  53.2164 110.5618 0001493  86.8730 273.2433 15.08843412 82365,6917.87,95.437,540.768,538.702,0.0
52267.0,STARLINK-3748,PAYLOAD,2023-10-09 21:49:29,15.0884762,0.0001377,53.2157,107.5864,90.8928,269.2222,9.9686e-05,1.299e-05,0.0,0 STARLINK-3748,1 52267U 22041G   23282.90937010  .00001299  00000-0  99686-4 0  9990,2 52267  53.2157 107.5864 0001377  90.8928 269.2222 15.08847620 81243,6917.857,95.437,540.675,538.77,0.0
52267.0,STARLINK-3748,PAYLOAD,2023-10-10 12:07:58,15.08840667,0.0001523,53.2154,104.9109,85.6342,274.4824,0.00010197,1.335e-05,0.0,0 STARLINK-3748,1 52267U 22041G   23283.50553521  .00001335  00000-0  10197-3 0  9998,2 52267  53.2154 104.9109 0001523  85.6342 274.4824 15.08840667 81338,6917.878,95.438,540.797,538.69,0.0
52267.0,STARLINK-3748,PAYLOAD,2023-10-10 18:29:30,15.0884307,0.00015,53.2153,103.7216,84.5163,275.6,0.00012272,1.666e-05,0.0,0 STARLINK-3748,1 52267U 22041G   23283.77049330  .00001666  00000-0  12272-3 0  9998,2 52267  53.2153 103.7216 0001500  84.5163 275.6000 15.08843070 82596,6917.871,95.437,540.774,538.698,0.0
52267.0,STARLINK-3748,PAYLOAD,2023-10-10 23:15:39,15.0885183,0.0001435,53.2161,102.8283,85.2878,274.8278,0.00018757,2.699e-05,0.0,0 STARLINK-3748,1 52267U 22041G   23283.96920714  .00002699  00000-0  18757-3 0  9994,2 52267  53.2161 102.8283 0001435  85.2878 274.8278 15.08851830 82622,6917.844,95.437,540.702,538.717,0.0
52267.0,STARLINK-3748,PAYLOAD,2023-10-11 05:37:12,15.08836618,0.0001292,53.2162,101.6378,96.9372,263.1767,3.2941e-05,2.36e-06,0.0,0 STARLINK-3748,1 52267U 22041G   23284.23417457  .00000236  00000-0  32941-4 0  9997,2 52267  53.2162 101.6378 0001292  96.9372 263.1767 15.08836618 82669,6917.891,95.438,540.65,538.862,0.0
52267.0,STARLINK-3748,PAYLOAD,2023-10-11 11:58:45,15.08835448,0.0001371,53.2158,100.4489,94.2163,265.8986,7.2398e-05,8.64e-06,0.0,0 STARLINK-3748,1 52267U 22041G   23284.49913673  .00000864  00000-0  72398-4 0  9993,2 52267  53.2158 100.4489 0001371  94.2163 265.8986 15.08835448 81482,6917.894,95.438,540.708,538.811,0.0
52267.0,STARLINK-3748,PAYLOAD,2023-10-12 15:00:18,15.08845232,0.0001416,53.2156,95.3942,88.8418,271.2737,0.00011808,1.592e-05,0.0,0 STARLINK-3748,1 52267U 22041G   23285.62521357  .00001592  00000-0  11808-3 0  9990,2 52267  53.2156  95.3942 0001416  88.8418 271.2737 15.08845232 81654,6917.864,95.437,540.709,538.75,0.0
52267.0,STARLINK-3748,PAYLOAD,2023-10-12 18:11:04,15.08846668,0.0001321,53.2145,94.801,76.7396,283.3743,0.00017376,2.479e-05,0.0,0 STARLINK-3748,1 52267U 22041G   23285.75769322  .00002479  00000-0  17376-3 0  9991,2 52267  53.2145  94.8010 0001321  76.7396 283.3743 15.08846668 82890,6917.86,95.437,540.639,538.811,0.0
52267.0,STARLINK-3748,PAYLOAD,2023-10-13 11:40:19,15.08839472,0.0001332,53.2147,91.5294,79.8024,280.3118,0.0001495,2.092e-05,0.0,0 STARLINK-3748,1 52267U 22041G   23286.48633706  .00002092  00000-0  14950-3 0  9994,2 52267  53.2147  91.5294 0001332  79.8024 280.3118 15.08839472 83006,6917.882,95.438,540.668,538.826,0.0
52267.0,STARLINK-3748,PAYLOAD,2023-10-13 14:51:05,15.08842639,0.0001395,53.2152,90.9337,81.1821,278.9329,0.00016473,2.335e-05,0.0,0 STARLINK-3748,1 52267U 22041G   23286.61881549  .00002335  00000-0  16473-3 0  9991,2 52267  53.2152  90.9337 0001395  81.1821 278.9329 15.08842639 81805,6917.872,95.437,540.702,538.772,0.0
52267.0,STARLINK-3748,PAYLOAD,2023-10-13 18:01:51,15.08846347,0.0001322,53.2152,90.3394,80.294,279.8201,0.00023369,3.434e-05,0.0,0 STARLINK-3748,1 52267U 22041G   23286.75129347  .00003434  00000-0  23369-3 0  9990,2 52267  53.2152  90.3394 0001322  80.2940 279.8201 15.08846347 81825,6917.861,95.437,540.641,538.811,0.0
52267.0,STARLINK-3748,PAYLOAD,2023-10-14 11:31:06,15.08838705,0.0001349,53.2156,87.0681,70.0549,290.0588,2.8442e-05,1.65e-06,0.0,0 STARLINK-3748,1 52267U 22041G   23287.47993698  .00000165  00000-0  28442-4 0  9994,2 52267  53.2156  87.0681 0001349  70.0549 290.0588 15.08838705 81936,6917.884,95.438,540.683,538.816,0.0
52267.0,STARLINK-3748,PAYLOAD,2023-10-14 17:52:38,15.08842308,0.0001404,53.2157,85.8804,75.0931,285.0217,6.6384e-05,7.69e-06,0.0,0 STARLINK-3748,1 52267U 22041G   23287.74489512  .00000769  00000-0  66384-4 0  9996,2 52267  53.2157  85.8804 0001404  75.0931 285.0217 15.08842308 83199,6917.873,95.437,540.71,538.767,0.0
52267.0,STARLINK-3748,PAYLOAD,2023-10-15 14:32:40,15.08835802,0.0001325,53.2164,82.0137,78.6719,281.4422,-3.5841e-05,-8.58e-06,0.0,0 STARLINK-3748,1 52267U 22041G   23288.60601892 -.00000858  00000-0 -35841-4 0  9994,2 52267  53.2164  82.0137 0001325  78.6719 281.4422 15.08835802 82109,6917.893,95.438,540.675,538.842,0.0
52267.0,STARLINK-3748,PAYLOAD,2023-10-15 17:43:26,15.08838524,0.0001345,53.2165,81.419,83.3382,276.7764,1.6105e-05,-3.2e-07,0.0,0 STARLINK-3748,1 52267U 22041G   23288.73849780 -.00000032  00000-0  16105-4 0  9993,2 52267  53.2165  81.4190 0001345  83.3382 276.7764 15.08838524 83340,6917.885,95.438,540.68,538.819,0.0
52267.0,STARLINK-3748,PAYLOAD,2023-10-16 14:23:27,15.08840205,0.0001312,53.2174,77.5537,83.1392,276.975,7.69e-05,9.36e-06,0.0,0 STARLINK-3748,1 52267U 22041G   23289.59962116  .00000936  00000-0  76900-4 0  9998,2 52267  53.2174  77.5537 0001312  83.1392 276.9750 15.08840205 82259,6917.88,95.438,540.652,538.837,0.0
52267.0,STARLINK-3748,PAYLOAD,2023-10-16 15:58:50,15.08841502,0.0001328,53.2173,77.2563,82.7705,277.3438,8.5786e-05,1.078e-05,0.0,0 STARLINK-3748,1 52267U 22041G   23289.66586006  .00001078  00000-0  85786-4 0  9996,2 52267  53.2173  77.2563 0001328  82.7705 277.3438 15.08841502 82264,6917.876,95.437,540.659,538.822,0.0
52267.0,STARLINK-3748,PAYLOAD,2023-10-17 09:28:04,15.08839272,0.0001387,53.2175,73.9846,81.597,278.5179,0.00011133,1.484e-05,0.0,0 STARLINK-3748,1 52267U 22041G   23290.39450208  .00001484  00000-0  11133-3 0  9997,2 52267  53.2175  73.9846 0001387  81.5970 278.5179 15.08839272 83592,6917.883,95.438,540.707,538.788,0.0
52267.0,STARLINK-3748,PAYLOAD,2023-10-18 02:57:19,15.08843564,0.0001436,53.2182,70.7151,83.298,276.8175,0.0001238,1.683e-05,0.0,0 STARLINK-3748,1 52267U 22041G   23291.12313916  .00001683  00000-0  12380-3 0  9999,2 52267  53.2182  70.7151 0001436  83.2980 276.8175 15.08843564 82482,6917.869,95.437,540.728,538.741,0.0
52267.0,STARLINK-3748,PAYLOAD,2023-10-18 15:40:25,15.08826487,0.0001348,53.2175,68.3343,101.0994,259.015,0.00028512,4.251e-05,0.0,0 STARLINK-3748,1 52267U 22041G   23291.65306824  .00004251  00000-0  28512-3 0  9995,2 52267  53.2175  68.3343 0001348 101.0994 259.0150 15.08826487 83781,6917.922,95.438,540.719,538.854,0.0
52267.0,STARLINK-3748,PAYLOAD,2023-10-19 02:48:06,15.08843735,0.000137,53.2175,66.2529,94.6684,265.4465,9.4782e-05,1.221e-05,0.0,0 STARLINK-3748,1 52267U 22041G   23292.11673889  .00001221  00000-0  94782-4 0  9992,2 52267  53.2175  66.2529 0001370  94.6684 265.4465 15.08843735 83855,6917.869,95.437,540.682,538.786,0.0
